[{"OBJECT_NAME":"GLOBAL-18","OBJECT_ID":"2022-034B","EPOCH":"2026-03-07T06:06:20.240352","MEAN_MOTION":15.4198163,"ECCENTRICITY":0.0002646,"INCLINATION":52.9843,"RA_OF_ASC_NODE":22.2737,"ARG_OF_PERICENTER":323.0204,"MEAN_ANOMALY":37.0617,"EPHEMERIS_TYPE":0,"CLASSIFICATION_TYPE":"U","NORAD_CAT_ID":52196,"ELEMENT_SET_NO":999,"REV_AT_EPOCH":22121,"BSTAR":0.00075117,"MEAN_MOTION_DOT":0.00032225,"MEAN_MOTION_DDOT":0},{"OBJECT_NAME":"GAOFEN-3 03","OBJECT_ID":"2022-035A","EPOCH":"2026-03-07T14:10:52.127904","MEAN_MOTION":14.42227189,"ECCENTRICITY":0.00014561,"INCLINATION":98.4104,"RA_OF_ASC_NODE":76.6285,"ARG_OF_PERICENTER":97.992,"MEAN_ANOMALY":262.1435,"EPHEMERIS_TYPE":0,"CLASSIFICATION_TYPE":"U","NORAD_CAT_ID":52200,"ELEMENT_SET_NO":999,"REV_AT_EPOCH":20620,"BSTAR":1.8386336e-5,"MEAN_MOTION_DOT":1.7e-7,"MEAN_MOTION_DDOT":0},{"OBJECT_NAME":"DAQI 1","OBJECT_ID":"2022-039A","EPOCH":"2026-03-07T14:53:31.873056","MEAN_MOTION":14.57652481,"ECCENTRICITY":0.00029391,"INCLINATION":98.1409,"RA_OF_ASC_NODE":7.6254,"ARG_OF_PERICENTER":186.6607,"MEAN_ANOMALY":173.4554,"EPHEMERIS_TYPE":0,"CLASSIFICATION_TYPE":"U","NORAD_CAT_ID":52257,"ELEMENT_SET_NO":999,"REV_AT_EPOCH":20714,"BSTAR":8.807891e-5,"MEAN_MOTION_DOT":3.57e-6,"MEAN_MOTION_DDOT":0},{"OBJECT_NAME":"JILIN-1 GAOFEN 3D05","OBJECT_ID":"2022-046C","EPOCH":"2026-03-07T09:23:44.920896","MEAN_MOTION":15.78398378,"ECCENTRICITY":0.00032434,"INCLINATION":97.4788,"RA_OF_ASC_NODE":180.5507,"ARG_OF_PERICENTER":237.4321,"MEAN_ANOMALY":122.6632,"EPHEMERIS_TYPE":0,"CLASSIFICATION_TYPE":"U","NORAD_CAT_ID":52390,"ELEMENT_SET_NO":999,"REV_AT_EPOCH":21456,"BSTAR":0.0013640307,"MEAN_MOTION_DOT":0.00240815,"MEAN_MOTION_DDOT":0},{"OBJECT_NAME":"BRO-6","OBJECT_ID":"2022-047AE","EPOCH":"2026-03-07T14:40:36.486624","MEAN_MOTION":15.44322529,"ECCENTRICITY":0.00057027,"INCLINATION":97.3421,"RA_OF_ASC_NODE":156.1984,"ARG_OF_PERICENTER":85.0932,"MEAN_ANOMALY":275.0967,"EPHEMERIS_TYPE":0,"CLASSIFICATION_TYPE":"U","NORAD_CAT_ID":52422,"ELEMENT_SET_NO":999,"REV_AT_EPOCH":21544,"BSTAR":0.0005290854,"MEAN_MOTION_DOT":0.00024347,"MEAN_MOTION_DDOT":0},{"OBJECT_NAME":"JILIN-1 GAOFEN 3D27","OBJECT_ID":"2022-048B","EPOCH":"2026-03-07T15:04:04.756512","MEAN_MOTION":15.58338774,"ECCENTRICITY":0.00045996,"INCLINATION":97.5637,"RA_OF_ASC_NODE":172.9195,"ARG_OF_PERICENTER":63.4254,"MEAN_ANOMALY":296.7472,"EPHEMERIS_TYPE":0,"CLASSIFICATION_TYPE":"U","NORAD_CAT_ID":52444,"ELEMENT_SET_NO":999,"REV_AT_EPOCH":21358,"BSTAR":0.0011706233,"MEAN_MOTION_DOT":0.00089576,"MEAN_MOTION_DDOT":0},{"OBJECT_NAME":"JILIN-1 GAOFEN 3D28","OBJECT_ID":"2022-048C","EPOCH":"2026-03-07T14:58:11.953344","MEAN_MOTION":15.595951,"ECCENTRICITY":0.00033269,"INCLINATION":97.5579,"RA_OF_ASC_NODE":172.838,"ARG_OF_PERICENTER":91.0511,"MEAN_ANOMALY":269.1126,"EPHEMERIS_TYPE":0,"CLASSIFICATION_TYPE":"U","NORAD_CAT_ID":52445,"ELEMENT_SET_NO":999,"REV_AT_EPOCH":21361,"BSTAR":0.0011682414,"MEAN_MOTION_DOT":0.00093753,"MEAN_MOTION_DDOT":0},{"OBJECT_NAME":"VIGORIDE-3","OBJECT_ID":"2022-057AE","EPOCH":"2026-03-07T08:44:34.591200","MEAN_MOTION":15.26055151,"ECCENTRICITY":0.00097118,"INCLINATION":97.6429,"RA_OF_ASC_NODE":203.8313,"ARG_OF_PERICENTER":119.0214,"MEAN_ANOMALY":241.1998,"EPHEMERIS_TYPE":0,"CLASSIFICATION_TYPE":"U","NORAD_CAT_ID":52760,"ELEMENT_SET_NO":999,"REV_AT_EPOCH":20962,"BSTAR":0.00039098607,"MEAN_MOTION_DOT":0.00010011,"MEAN_MOTION_DDOT":0},{"OBJECT_NAME":"ION SCV-006","OBJECT_ID":"2022-057AF","EPOCH":"2026-03-07T08:35:18.381696","MEAN_MOTION":15.42806498,"ECCENTRICITY":0.00195471,"INCLINATION":97.5939,"RA_OF_ASC_NODE":210.3727,"ARG_OF_PERICENTER":122.0806,"MEAN_ANOMALY":238.2342,"EPHEMERIS_TYPE":0,"CLASSIFICATION_TYPE":"U","NORAD_CAT_ID":52761,"ELEMENT_SET_NO":999,"REV_AT_EPOCH":21040,"BSTAR":0.00046978395,"MEAN_MOTION_DOT":0.00020649,"MEAN_MOTION_DDOT":0},{"OBJECT_NAME":"SHERPA-AC1","OBJECT_ID":"2022-057AH","EPOCH":"2026-03-07T15:59:37.810176","MEAN_MOTION":15.34619666,"ECCENTRICITY":0.00090561,"INCLINATION":97.6521,"RA_OF_ASC_NODE":211.8753,"ARG_OF_PERICENTER":94.4123,"MEAN_ANOMALY":265.8155,"EPHEMERIS_TYPE":0,"CLASSIFICATION_TYPE":"U","NORAD_CAT_ID":52763,"ELEMENT_SET_NO":999,"REV_AT_EPOCH":21012,"BSTAR":0.00037499495,"MEAN_MOTION_DOT":0.00012518,"MEAN_MOTION_DDOT":0},{"OBJECT_NAME":"OMNI-L2","OBJECT_ID":"2022-057AR","EPOCH":"2026-03-07T04:25:58.650240","MEAN_MOTION":14.81062845,"ECCENTRICITY":0.00053244,"INCLINATION":97.4815,"RA_OF_ASC_NODE":135.3701,"ARG_OF_PERICENTER":305.4156,"MEAN_ANOMALY":54.656,"EPHEMERIS_TYPE":0,"CLASSIFICATION_TYPE":"U","NORAD_CAT_ID":52771,"ELEMENT_SET_NO":999,"REV_AT_EPOCH":20529,"BSTAR":0.00024905752,"MEAN_MOTION_DOT":1.885e-5,"MEAN_MOTION_DDOT":0},{"OBJECT_NAME":"STEP CUBE LAB-II","OBJECT_ID":"2022-065D","EPOCH":"2026-03-07T14:04:47.761824","MEAN_MOTION":14.63111857,"ECCENTRICITY":0.00082725,"INCLINATION":98.2048,"RA_OF_ASC_NODE":210.9023,"ARG_OF_PERICENTER":351.5906,"MEAN_ANOMALY":8.5156,"EPHEMERIS_TYPE":0,"CLASSIFICATION_TYPE":"U","NORAD_CAT_ID":52897,"ELEMENT_SET_NO":999,"REV_AT_EPOCH":19664,"BSTAR":0.00026523006,"MEAN_MOTION_DOT":1.315e-5,"MEAN_MOTION_DDOT":0},{"OBJECT_NAME":"RANDEV","OBJECT_ID":"2022-065E","EPOCH":"2026-03-07T14:44:39.327648","MEAN_MOTION":14.63488672,"ECCENTRICITY":0.00075894,"INCLINATION":98.2034,"RA_OF_ASC_NODE":211.2363,"ARG_OF_PERICENTER":352.6165,"MEAN_ANOMALY":7.4924,"EPHEMERIS_TYPE":0,"CLASSIFICATION_TYPE":"U","NORAD_CAT_ID":52898,"ELEMENT_SET_NO":999,"REV_AT_EPOCH":19639,"BSTAR":0.00029020724,"MEAN_MOTION_DOT":1.456e-5,"MEAN_MOTION_DDOT":0},{"OBJECT_NAME":"SNUGLITE-II","OBJECT_ID":"2022-065F","EPOCH":"2026-03-07T08:21:14.200992","MEAN_MOTION":14.64123177,"ECCENTRICITY":0.00071035,"INCLINATION":98.2025,"RA_OF_ASC_NODE":211.462,"ARG_OF_PERICENTER":352.3432,"MEAN_ANOMALY":7.7661,"EPHEMERIS_TYPE":0,"CLASSIFICATION_TYPE":"U","NORAD_CAT_ID":52899,"ELEMENT_SET_NO":999,"REV_AT_EPOCH":19609,"BSTAR":0.00036189104,"MEAN_MOTION_DOT":1.854e-5,"MEAN_MOTION_DDOT":0},{"OBJECT_NAME":"MIMAN","OBJECT_ID":"2022-065G","EPOCH":"2026-03-07T07:56:43.776672","MEAN_MOTION":14.61706809,"ECCENTRICITY":0.0007302,"INCLINATION":98.2078,"RA_OF_ASC_NODE":209.426,"ARG_OF_PERICENTER":353.9904,"MEAN_ANOMALY":6.1208,"EPHEMERIS_TYPE":0,"CLASSIFICATION_TYPE":"U","NORAD_CAT_ID":52900,"ELEMENT_SET_NO":999,"REV_AT_EPOCH":19556,"BSTAR":0.00023237,"MEAN_MOTION_DOT":1.11e-5,"MEAN_MOTION_DDOT":0},{"OBJECT_NAME":"STARLINK-4362","OBJECT_ID":"2022-077A","EPOCH":"2026-03-07T12:14:18.765888","MEAN_MOTION":15.01265787,"ECCENTRICITY":0.00026544,"INCLINATION":97.6022,"RA_OF_ASC_NODE":248.09,"ARG_OF_PERICENTER":62.6678,"MEAN_ANOMALY":297.4816,"EPHEMERIS_TYPE":0,"CLASSIFICATION_TYPE":"U","NORAD_CAT_ID":53043,"ELEMENT_SET_NO":999,"REV_AT_EPOCH":20059,"BSTAR":0.00010253801,"MEAN_MOTION_DOT":1.259e-5,"MEAN_MOTION_DDOT":0},{"OBJECT_NAME":"LARES-2","OBJECT_ID":"2022-080A","EPOCH":"2026-03-06T00:34:32.699712","MEAN_MOTION":6.38965015,"ECCENTRICITY":0.00053097,"INCLINATION":70.1755,"RA_OF_ASC_NODE":340.7064,"ARG_OF_PERICENTER":356.7815,"MEAN_ANOMALY":3.2821,"EPHEMERIS_TYPE":0,"CLASSIFICATION_TYPE":"U","NORAD_CAT_ID":53105,"ELEMENT_SET_NO":999,"REV_AT_EPOCH":8507,"BSTAR":0,"MEAN_MOTION_DOT":-2.8e-7,"MEAN_MOTION_DDOT":0},{"OBJECT_NAME":"GREENCUBE (IO-117)","OBJECT_ID":"2022-080E","EPOCH":"2026-03-07T02:04:59.774016","MEAN_MOTION":6.42583094,"ECCENTRICITY":0.00090138,"INCLINATION":70.1628,"RA_OF_ASC_NODE":333.7587,"ARG_OF_PERICENTER":311.8097,"MEAN_ANOMALY":48.1792,"EPHEMERIS_TYPE":0,"CLASSIFICATION_TYPE":"U","NORAD_CAT_ID":53109,"ELEMENT_SET_NO":999,"REV_AT_EPOCH":8550,"BSTAR":0,"MEAN_MOTION_DOT":-3.0e-8,"MEAN_MOTION_DDOT":0},{"OBJECT_NAME":"STARLINK-4410","OBJECT_ID":"2022-084R","EPOCH":"2026-03-07T15:07:04.175616","MEAN_MOTION":15.01261583,"ECCENTRICITY":0.00016582,"INCLINATION":97.6022,"RA_OF_ASC_NODE":128.1926,"ARG_OF_PERICENTER":68.6592,"MEAN_ANOMALY":291.4809,"EPHEMERIS_TYPE":0,"CLASSIFICATION_TYPE":"U","NORAD_CAT_ID":53204,"ELEMENT_SET_NO":999,"REV_AT_EPOCH":19966,"BSTAR":2.0150588e-5,"MEAN_MOTION_DOT":2.01e-6,"MEAN_MOTION_DDOT":0},{"OBJECT_NAME":"COSMOS 2558","OBJECT_ID":"2022-089A","EPOCH":"2026-03-07T11:05:51.448992","MEAN_MOTION":15.59403574,"ECCENTRICITY":0.0001478,"INCLINATION":97.2251,"RA_OF_ASC_NODE":167.7046,"ARG_OF_PERICENTER":59.2701,"MEAN_ANOMALY":300.8702,"EPHEMERIS_TYPE":0,"CLASSIFICATION_TYPE":"U","NORAD_CAT_ID":53323,"ELEMENT_SET_NO":999,"REV_AT_EPOCH":20190,"BSTAR":0.0010529,"MEAN_MOTION_DOT":0.00083754,"MEAN_MOTION_DDOT":0},{"OBJECT_NAME":"TECMS","OBJECT_ID":"2022-090A","EPOCH":"2026-03-07T14:33:42.552864","MEAN_MOTION":15.2149379,"ECCENTRICITY":0.00034453,"INCLINATION":97.3234,"RA_OF_ASC_NODE":137.5441,"ARG_OF_PERICENTER":198.9445,"MEAN_ANOMALY":161.1664,"EPHEMERIS_TYPE":0,"CLASSIFICATION_TYPE":"U","NORAD_CAT_ID":53346,"ELEMENT_SET_NO":999,"REV_AT_EPOCH":19936,"BSTAR":0.00029449766,"MEAN_MOTION_DOT":6.559e-5,"MEAN_MOTION_DDOT":0},{"OBJECT_NAME":"DONGPO 04","OBJECT_ID":"2022-098H","EPOCH":"2026-03-06T08:59:50.735328","MEAN_MOTION":15.78835408,"ECCENTRICITY":0.00023227,"INCLINATION":97.5487,"RA_OF_ASC_NODE":196.6788,"ARG_OF_PERICENTER":265.9625,"MEAN_ANOMALY":94.1376,"EPHEMERIS_TYPE":0,"CLASSIFICATION_TYPE":"U","NORAD_CAT_ID":53451,"ELEMENT_SET_NO":999,"REV_AT_EPOCH":19905,"BSTAR":0.00097405595,"MEAN_MOTION_DOT":0.00173942,"MEAN_MOTION_DDOT":0},{"OBJECT_NAME":"DONGPO 02","OBJECT_ID":"2022-098J","EPOCH":"2026-03-07T14:27:53.692128","MEAN_MOTION":15.59084277,"ECCENTRICITY":0.00020197,"INCLINATION":97.5389,"RA_OF_ASC_NODE":190.4148,"ARG_OF_PERICENTER":325.9428,"MEAN_ANOMALY":34.1698,"EPHEMERIS_TYPE":0,"CLASSIFICATION_TYPE":"U","NORAD_CAT_ID":53452,"ELEMENT_SET_NO":999,"REV_AT_EPOCH":19889,"BSTAR":0.0011018118,"MEAN_MOTION_DOT":0.00086639,"MEAN_MOTION_DDOT":0}]
